IRIDIUM 166             
1 43570U 18061B   25018.54289836  .00000324  00000+0  10862-3 0  9994
2 43570  86.3953 271.7813 0002273  94.4214 265.7242 14.34217424339636
IRIDIUM 158             
1 43571U 18061C   25018.44141599  .00000077  00000+0  20590-4 0  9992
2 43571  86.3953 271.8335 0001834  90.5697 269.5709 14.34218329339580
IRIDIUM 165             
1 43572U 18061D   25018.39701933  .00000302  00000+0  10064-3 0  9996
2 43572  86.3955 271.8883 0002206  83.2674 276.8773 14.34220061339600
IRIDIUM 155             
1 43573U 18061E   25018.77757129  .00000525  00000+0  18041-3 0  9997
2 43573  86.3950 271.6241 0001958  94.9800 265.1619 14.34223938339634
IRIDIUM 154             
1 43574U 18061F   25018.40970386  .00000033  00000+0  47749-5 0  9993
2 43574  86.3953 271.8860 0002086  85.0181 275.1252 14.34217990339627
IRIDIUM 163             
1 43575U 18061G   25018.46044468  .00000053  00000+0  11799-4 0  9990
2 43575  86.3953 271.7965 0001935  84.7022 275.4394 14.34217759339606
IRIDIUM 156             
1 43576U 18061H   25018.22576677  .00000299  00000+0  99632-4 0  9991
2 43576  86.3953 271.9012 0002111  96.0591 264.0845 14.34219917339564
IRIDIUM 164             
1 43577U 18061J   25018.55558083  .00000554  00000+0  19084-3 0  9995
2 43577  86.3954 271.7955 0002284  81.1812 278.9642 14.34222136339658
